{
  "type": "FeatureCollection",
  "features": [
    {
      "type": "Feature",
      "properties": {
        "norad_id": 34070,
        "name": "COSMOS 2251 DEB",
        "group": "cosmos-2251-debris",
        "lat": -2.427262884777129,
        "lon": -66.45473705599186,
        "alt_km": 632.4152997794208,
        "timestamp": "2025-12-14T11:29:50.454031+00:00",
        "meta_object_name": "COSMOS 2251 DEB",
        "meta_object_id": "1993-036KH",
        "meta_epoch": "2025-12-13T15:16:10.305696",
        "meta_mean_motion": 14.77076232,
        "meta_eccentricity": 0.00185811,
        "meta_inclination": 73.9997,
        "meta_ra_of_asc_node": 114.5038,
        "meta_arg_of_pericenter": 230.6093,
        "meta_mean_anomaly": 152.0609,
        "meta_ephemeris_type": 0,
        "meta_classification_type": "U",
        "meta_norad_cat_id": 34070,
        "meta_element_set_no": 999,
        "meta_rev_at_epoch": 88624,
        "meta_bstar": 0.0029190415,
        "meta_mean_motion_dot": 0.00020702,
        "meta_mean_motion_ddot": 0,
        "tle_line1": "1 34070U 93036KH  25347.63623039  .00020702  00000+0  29190-2 0  9991",
        "tle_line2": "2 34070  73.9997 114.5038 0018581 230.6093 152.0609 14.77076232886248"
      },
      "geometry": {
        "type": "Point",
        "coordinates": [
          -66.45473705599186,
          -2.427262884777129
        ]
      }
    },
    {
      "type": "Feature",
      "properties": {
        "norad_id": 34114,
        "name": "COSMOS 2251 DEB",
        "group": "cosmos-2251-debris",
        "lat": -71.77484174569638,
        "lon": -79.2352950986715,
        "alt_km": 734.773008678012,
        "timestamp": "2025-12-14T11:29:50.454041+00:00",
        "meta_object_name": "COSMOS 2251 DEB",
        "meta_object_id": "1993-036KK",
        "meta_epoch": "2025-12-13T13:24:16.903008",
        "meta_mean_motion": 14.56398002,
        "meta_eccentricity": 0.00474238,
        "meta_inclination": 74.0595,
        "meta_ra_of_asc_node": 42.2796,
        "meta_arg_of_pericenter": 36.5537,
        "meta_mean_anomaly": 80.4885,
        "meta_ephemeris_type": 0,
        "meta_classification_type": "U",
        "meta_norad_cat_id": 34114,
        "meta_element_set_no": 999,
        "meta_rev_at_epoch": 87813,
        "meta_bstar": 0.0018836131,
        "meta_mean_motion_dot": 8.469e-05,
        "meta_mean_motion_ddot": 0,
        "tle_line1": "1 34114U 93036KK  25347.55852897  .00008469  00000+0  18836-2 0  9998",
        "tle_line2": "2 34114  74.0595  42.2796 0047423  36.5537  80.4885 14.56398002878132"
      },
      "geometry": {
        "type": "Point",
        "coordinates": [
          -79.2352950986715,
          -71.77484174569638
        ]
      }
    },
    {
      "type": "Feature",
      "properties": {
        "norad_id": 34115,
        "name": "COSMOS 2251 DEB",
        "group": "cosmos-2251-debris",
        "lat": 19.79851770497101,
        "lon": 52.58649131414328,
        "alt_km": 633.1587416700831,
        "timestamp": "2025-12-14T11:29:50.454051+00:00",
        "meta_object_name": "COSMOS 2251 DEB",
        "meta_object_id": "1993-036KL",
        "meta_epoch": "2025-12-13T10:26:25.390176",
        "meta_mean_motion": 14.79508585,
        "meta_eccentricity": 0.00285119,
        "meta_inclination": 74.0062,
        "meta_ra_of_asc_node": 240.5708,
        "meta_arg_of_pericenter": 63.9485,
        "meta_mean_anomaly": 296.4621,
        "meta_ephemeris_type": 0,
        "meta_classification_type": "U",
        "meta_norad_cat_id": 34115,
        "meta_element_set_no": 999,
        "meta_rev_at_epoch": 89422,
        "meta_bstar": 0.0017105054,
        "meta_mean_motion_dot": 0.0001287,
        "meta_mean_motion_ddot": 0,
        "tle_line1": "1 34115U 93036KL  25347.43501609  .00012870  00000+0  17105-2 0  9997",
        "tle_line2": "2 34115  74.0062 240.5708 0028511  63.9485 296.4621 14.79508585894220"
      },
      "geometry": {
        "type": "Point",
        "coordinates": [
          52.58649131414328,
          19.79851770497101
        ]
      }
    },
    {
      "type": "Feature",
      "properties": {
        "norad_id": 34116,
        "name": "COSMOS 2251 DEB",
        "group": "cosmos-2251-debris",
        "lat": -41.58683159412893,
        "lon": 164.78417273383016,
        "alt_km": 718.0046285436056,
        "timestamp": "2025-12-14T11:29:50.454061+00:00",
        "meta_object_name": "COSMOS 2251 DEB",
        "meta_object_id": "1993-036KM",
        "meta_epoch": "2025-12-13T16:13:18.980832",
        "meta_mean_motion": 14.52982894,
        "meta_eccentricity": 0.0011998,
        "meta_inclination": 74.0402,
        "meta_ra_of_asc_node": 181.0105,
        "meta_arg_of_pericenter": 257.1149,
        "meta_mean_anomaly": 179.8748,
        "meta_ephemeris_type": 0,
        "meta_classification_type": "U",
        "meta_norad_cat_id": 34116,
        "meta_element_set_no": 999,
        "meta_rev_at_epoch": 88500,
        "meta_bstar": 0.00094306196,
        "meta_mean_motion_dot": 3.868e-05,
        "meta_mean_motion_ddot": 0,
        "tle_line1": "1 34116U 93036KM  25347.67591413  .00003868  00000+0  94306-3 0  9992",
        "tle_line2": "2 34116  74.0402 181.0105 0011998 257.1149 179.8748 14.52982894885004"
      },
      "geometry": {
        "type": "Point",
        "coordinates": [
          164.78417273383016,
          -41.58683159412893
        ]
      }
    },
    {
      "type": "Feature",
      "properties": {
        "norad_id": 34117,
        "name": "COSMOS 2251 DEB",
        "group": "cosmos-2251-debris",
        "lat": 58.55626140449433,
        "lon": 8.521795641723875,
        "alt_km": 713.691023210693,
        "timestamp": "2025-12-14T11:29:50.454073+00:00",
        "meta_object_name": "COSMOS 2251 DEB",
        "meta_object_id": "1993-036KN",
        "meta_epoch": "2025-12-13T10:12:03.581280",
        "meta_mean_motion": 14.40016639,
        "meta_eccentricity": 0.00545541,
        "meta_inclination": 74.0403,
        "meta_ra_of_asc_node": 342.5625,
        "meta_arg_of_pericenter": 58.7234,
        "meta_mean_anomaly": 301.9248,
        "meta_ephemeris_type": 0,
        "meta_classification_type": "U",
        "meta_norad_cat_id": 34117,
        "meta_element_set_no": 999,
        "meta_rev_at_epoch": 88133,
        "meta_bstar": 0.0010651476,
        "meta_mean_motion_dot": 3.391e-05,
        "meta_mean_motion_ddot": 0,
        "tle_line1": "1 34117U 93036KN  25347.42504145  .00003391  00000+0  10651-2 0  9993",
        "tle_line2": "2 34117  74.0403 342.5625 0054554  58.7234 301.9248 14.40016639881339"
      },
      "geometry": {
        "type": "Point",
        "coordinates": [
          8.521795641723875,
          58.55626140449433
        ]
      }
    },
    {
      "type": "Feature",
      "properties": {
        "norad_id": 34118,
        "name": "COSMOS 2251 DEB",
        "group": "cosmos-2251-debris",
        "lat": 63.303615480603035,
        "lon": 30.866860865473637,
        "alt_km": 544.81725310811,
        "timestamp": "2025-12-14T11:29:50.454083+00:00",
        "meta_object_name": "COSMOS 2251 DEB",
        "meta_object_id": "1993-036KP",
        "meta_epoch": "2025-12-13T11:41:45.223008",
        "meta_mean_motion": 14.94004564,
        "meta_eccentricity": 0.00599559,
        "meta_inclination": 73.9521,
        "meta_ra_of_asc_node": 247.7916,
        "meta_arg_of_pericenter": 77.9697,
        "meta_mean_anomaly": 101.4094,
        "meta_ephemeris_type": 0,
        "meta_classification_type": "U",
        "meta_norad_cat_id": 34118,
        "meta_element_set_no": 999,
        "meta_rev_at_epoch": 89187,
        "meta_bstar": 0.0031164008,
        "meta_mean_motion_dot": 0.00034561,
        "meta_mean_motion_ddot": 0,
        "tle_line1": "1 34118U 93036KP  25347.48732897  .00034561  00000+0  31164-2 0  9992",
        "tle_line2": "2 34118  73.9521 247.7916 0059955  77.9697 101.4094 14.94004564891879"
      },
      "geometry": {
        "type": "Point",
        "coordinates": [
          30.866860865473637,
          63.303615480603035
        ]
      }
    },
    {
      "type": "Feature",
      "properties": {
        "norad_id": 34120,
        "name": "COSMOS 2251 DEB",
        "group": "cosmos-2251-debris",
        "lat": -70.49940654058298,
        "lon": 159.04373388294766,
        "alt_km": 968.0713072123726,
        "timestamp": "2025-12-14T11:29:50.454093+00:00",
        "meta_object_name": "COSMOS 2251 DEB",
        "meta_object_id": "1993-036KR",
        "meta_epoch": "2025-12-13T15:34:50.408256",
        "meta_mean_motion": 13.98684926,
        "meta_eccentricity": 0.01820022,
        "meta_inclination": 73.991,
        "meta_ra_of_asc_node": 214.6455,
        "meta_arg_of_pericenter": 42.123,
        "meta_mean_anomaly": 24.046,
        "meta_ephemeris_type": 0,
        "meta_classification_type": "U",
        "meta_norad_cat_id": 34120,
        "meta_element_set_no": 999,
        "meta_rev_at_epoch": 85993,
        "meta_bstar": 0.00044310635,
        "meta_mean_motion_dot": 7.1e-06,
        "meta_mean_motion_ddot": 0,
        "tle_line1": "1 34120U 93036KR  25347.64919454  .00000710  00000+0  44311-3 0  9997",
        "tle_line2": "2 34120  73.9910 214.6455 0182002  42.1230  24.0460 13.98684926859939"
      },
      "geometry": {
        "type": "Point",
        "coordinates": [
          159.04373388294766,
          -70.49940654058298
        ]
      }
    }
  ]
}